GLOBALSTAR M067         
1 32263U 07048A   24272.67169387 -.00000062  00000+0  26313-3 0  9995
2 32263  51.9722  81.1370 0001602 119.0518 341.9017 12.40655838777264
GLOBALSTAR M070         
1 32264U 07048B   24272.29961355 -.00000084  00000+0  11003-3 0  9993
2 32264  51.9742 206.3098 0000335  55.7225  80.7520 12.62301070780595
GLOBALSTAR M066         
1 32265U 07048C   24272.42997081 -.00000070  00000+0  19244-3 0  9994
2 32265  51.9675  70.2894 0001275  33.9938   8.8946 12.53546545782836
GLOBALSTAR M068         
1 32266U 07048D   24272.55096104 -.00000053  00000+0  28038-3 0  9997
2 32266  51.9911  19.7972 0000276 258.4595 115.1145 12.62801061784504
GLOBALSTAR M079         
1 37188U 10054A   24272.57758535 -.00000094  00000+0  52432-4 0  9992
2 37188  52.0031 216.1690 0000813  66.7509 105.6826 12.62264655643415
GLOBALSTAR M074         
1 37189U 10054B   24272.89056580 -.00000111  00000+0 -37607-4 0  9997
2 37189  52.0017 214.5742 0000496  81.0217 317.3958 12.62270024644138
GLOBALSTAR M076         
1 37190U 10054C   24272.91904440 -.00000096  00000+0  45935-4 0  9993
2 37190  52.0021 214.6423 0000755  93.1210 309.8017 12.62270643644147
GLOBALSTAR M077         
1 37191U 10054D   24272.91366803 -.00000092  00000+0  67487-4 0  9991
2 37191  52.0061 171.4383 0000692  70.9876   8.9584 12.62264350644894
